SL-14 R/B               
1 21423U 91042B   26045.59621803  .00000425  00000+0  50763-4 0  9994
2 21423  82.4898 241.8423 0016097 321.2719  38.7340 14.81806278849657
ERS-1                   
1 21574U 91050A   26045.61954317  .00000375  00000+0  13475-3 0  9994
2 21574  98.7893  63.2738 0030872 270.7599  89.0051 14.39430603812415
ARIANE 40 R/B           
1 21610U 91050F   26045.58666188  .00000317  00000+0  10742-3 0  9997
2 21610  98.2062  98.6844 0004117 131.8187 228.3356 14.42876270815666
INTERCOSMOS 25          
1 21819U 91086A   26045.29297842  .00001516  00000+0  29332-3 0  9999
2 21819  82.6086 324.1463 1486894 167.3345 196.9864 12.11935438493854
SL-8 R/B                
1 21876U 92008B   26045.66909520  .00000052  00000+0  37721-4 0  9997
2 21876  82.9255 284.9052 0034140 196.9629 217.1368 13.75969866706259
SL-8 R/B                
1 21938U 92020B   26045.49048370  .00000095  00000+0  83216-4 0  9995
2 21938  82.9337 170.9806 0028923   5.3059  66.2205 13.75546260697949
USA 81                  
1 21949U 92023A   26045.32625429  .00000206  00000+0  68979-4 0  9991
2 21949  85.0118 144.9135 0002743  98.4407 261.7097 14.32359483 91447
COSMOS 2219             
1 22219U 92076A   26045.46028096  .00000135  00000+0  95410-4 0  9993
2 22219  71.0579  66.6306 0020074 238.5484 121.3676 14.14077369715091
SL-16 R/B               
1 22220U 92076B   26045.60984723 -.00000186  00000+0 -68730-4 0  9992
2 22220  70.9975 236.9907 0011238 138.2098 279.9639 14.16855444718563
COSMOS 2221             
1 22236U 92080A   26045.63067509  .00001861  00000+0  16305-3 0  9990
2 22236  82.5052 301.1665 0012747 271.4462  88.5300 14.96109044777348
SL-16 R/B               
1 22285U 92093B   26045.41834961  .00000248  00000+0  15121-3 0  9991
2 22285  71.0202  53.1188 0005339 318.7411  41.3307 14.15442461709864
COSMOS 2228             
1 22286U 92094A   26045.66213358  .00001977  00000+0  16867-3 0  9999
2 22286  82.5150 259.3622 0018633  23.7167 336.4909 14.97080121772619
