CCSDS_OMM_VERS = 2.0
CREATION_DATE  = 
ORIGINATOR     = 

OBJECT_NAME    = SL-14 R/B
OBJECT_ID      = 1991-042B
CENTER_NAME    = EARTH
REF_FRAME      = TEME
TIME_SYSTEM    = UTC
MEAN_ELEMENT_THEORY = SGP/SGP4

EPOCH          = 2026-02-14T14:18:33.237792
MEAN_MOTION    = 14.81806278
ECCENTRICITY   = .0016097
INCLINATION    = 82.4898
RA_OF_ASC_NODE = 241.8423
ARG_OF_PERICENTER = 321.2719
MEAN_ANOMALY   = 38.7340

EPHEMERIS_TYPE = 0
CLASSIFICATION_TYPE = U
NORAD_CAT_ID   = 21423
ELEMENT_SET_NO = 999
REV_AT_EPOCH   = 84965
BSTAR          = .50763E-4
MEAN_MOTION_DOT = .425E-5
MEAN_MOTION_DDOT = 0

CCSDS_OMM_VERS = 2.0
CREATION_DATE  = 
ORIGINATOR     = 

OBJECT_NAME    = ERS-1
OBJECT_ID      = 1991-050A
CENTER_NAME    = EARTH
REF_FRAME      = TEME
TIME_SYSTEM    = UTC
MEAN_ELEMENT_THEORY = SGP/SGP4

EPOCH          = 2026-02-14T14:52:08.529888
MEAN_MOTION    = 14.39430603
ECCENTRICITY   = .0030872
INCLINATION    = 98.7893
RA_OF_ASC_NODE = 63.2738
ARG_OF_PERICENTER = 270.7599
MEAN_ANOMALY   = 89.0051

EPHEMERIS_TYPE = 0
CLASSIFICATION_TYPE = U
NORAD_CAT_ID   = 21574
ELEMENT_SET_NO = 999
REV_AT_EPOCH   = 81241
BSTAR          = .13475E-3
MEAN_MOTION_DOT = .375E-5
MEAN_MOTION_DDOT = 0

CCSDS_OMM_VERS = 2.0
CREATION_DATE  = 
ORIGINATOR     = 

OBJECT_NAME    = ARIANE 40 R/B
OBJECT_ID      = 1991-050F
CENTER_NAME    = EARTH
REF_FRAME      = TEME
TIME_SYSTEM    = UTC
MEAN_ELEMENT_THEORY = SGP/SGP4

EPOCH          = 2026-02-14T14:04:47.586432
MEAN_MOTION    = 14.42876270
ECCENTRICITY   = .0004117
INCLINATION    = 98.2062
RA_OF_ASC_NODE = 98.6844
ARG_OF_PERICENTER = 131.8187
MEAN_ANOMALY   = 228.3356

EPHEMERIS_TYPE = 0
CLASSIFICATION_TYPE = U
NORAD_CAT_ID   = 21610
ELEMENT_SET_NO = 999
REV_AT_EPOCH   = 81566
BSTAR          = .10742E-3
MEAN_MOTION_DOT = .317E-5
MEAN_MOTION_DDOT = 0

CCSDS_OMM_VERS = 2.0
CREATION_DATE  = 
ORIGINATOR     = 

OBJECT_NAME    = INTERCOSMOS 25
OBJECT_ID      = 1991-086A
CENTER_NAME    = EARTH
REF_FRAME      = TEME
TIME_SYSTEM    = UTC
MEAN_ELEMENT_THEORY = SGP/SGP4

EPOCH          = 2026-02-14T07:01:53.335488
MEAN_MOTION    = 12.11935438
ECCENTRICITY   = .1486894
INCLINATION    = 82.6086
RA_OF_ASC_NODE = 324.1463
ARG_OF_PERICENTER = 167.3345
MEAN_ANOMALY   = 196.9864

EPHEMERIS_TYPE = 0
CLASSIFICATION_TYPE = U
NORAD_CAT_ID   = 21819
ELEMENT_SET_NO = 999
REV_AT_EPOCH   = 49385
BSTAR          = .29332E-3
MEAN_MOTION_DOT = .1516E-4
MEAN_MOTION_DDOT = 0

CCSDS_OMM_VERS = 2.0
CREATION_DATE  = 
ORIGINATOR     = 

OBJECT_NAME    = SL-8 R/B
OBJECT_ID      = 1992-008B
CENTER_NAME    = EARTH
REF_FRAME      = TEME
TIME_SYSTEM    = UTC
MEAN_ELEMENT_THEORY = SGP/SGP4

EPOCH          = 2026-02-14T16:03:29.825280
MEAN_MOTION    = 13.75969866
ECCENTRICITY   = .003414
INCLINATION    = 82.9255
RA_OF_ASC_NODE = 284.9052
ARG_OF_PERICENTER = 196.9629
MEAN_ANOMALY   = 217.1368

EPHEMERIS_TYPE = 0
CLASSIFICATION_TYPE = U
NORAD_CAT_ID   = 21876
ELEMENT_SET_NO = 999
REV_AT_EPOCH   = 70625
BSTAR          = .37721E-4
MEAN_MOTION_DOT = .52E-6
MEAN_MOTION_DDOT = 0

CCSDS_OMM_VERS = 2.0
CREATION_DATE  = 
ORIGINATOR     = 

OBJECT_NAME    = SL-8 R/B
OBJECT_ID      = 1992-020B
CENTER_NAME    = EARTH
REF_FRAME      = TEME
TIME_SYSTEM    = UTC
MEAN_ELEMENT_THEORY = SGP/SGP4

EPOCH          = 2026-02-14T11:46:17.791680
MEAN_MOTION    = 13.75546260
ECCENTRICITY   = .0028923
INCLINATION    = 82.9337
RA_OF_ASC_NODE = 170.9806
ARG_OF_PERICENTER = 5.3059
MEAN_ANOMALY   = 66.2205

EPHEMERIS_TYPE = 0
CLASSIFICATION_TYPE = U
NORAD_CAT_ID   = 21938
ELEMENT_SET_NO = 999
REV_AT_EPOCH   = 69794
BSTAR          = .83216E-4
MEAN_MOTION_DOT = .95E-6
MEAN_MOTION_DDOT = 0

CCSDS_OMM_VERS = 2.0
CREATION_DATE  = 
ORIGINATOR     = 

OBJECT_NAME    = USA 81
OBJECT_ID      = 1992-023A
CENTER_NAME    = EARTH
REF_FRAME      = TEME
TIME_SYSTEM    = UTC
MEAN_ELEMENT_THEORY = SGP/SGP4

EPOCH          = 2026-02-14T07:49:48.370656
MEAN_MOTION    = 14.32359483
ECCENTRICITY   = .0002743
INCLINATION    = 85.0118
RA_OF_ASC_NODE = 144.9135
ARG_OF_PERICENTER = 98.4407
MEAN_ANOMALY   = 261.7097

EPHEMERIS_TYPE = 0
CLASSIFICATION_TYPE = U
NORAD_CAT_ID   = 21949
ELEMENT_SET_NO = 999
REV_AT_EPOCH   = 9144
BSTAR          = .68979E-4
MEAN_MOTION_DOT = .206E-5
MEAN_MOTION_DDOT = 0

CCSDS_OMM_VERS = 2.0
CREATION_DATE  = 
ORIGINATOR     = 

OBJECT_NAME    = COSMOS 2219
OBJECT_ID      = 1992-076A
CENTER_NAME    = EARTH
REF_FRAME      = TEME
TIME_SYSTEM    = UTC
MEAN_ELEMENT_THEORY = SGP/SGP4

EPOCH          = 2026-02-14T11:02:48.274944
MEAN_MOTION    = 14.14077369
ECCENTRICITY   = .0020074
INCLINATION    = 71.0579
RA_OF_ASC_NODE = 66.6306
ARG_OF_PERICENTER = 238.5484
MEAN_ANOMALY   = 121.3676

EPHEMERIS_TYPE = 0
CLASSIFICATION_TYPE = U
NORAD_CAT_ID   = 22219
ELEMENT_SET_NO = 999
REV_AT_EPOCH   = 71509
BSTAR          = .9541E-4
MEAN_MOTION_DOT = .135E-5
MEAN_MOTION_DDOT = 0

CCSDS_OMM_VERS = 2.0
CREATION_DATE  = 
ORIGINATOR     = 

OBJECT_NAME    = SL-16 R/B
OBJECT_ID      = 1992-076B
CENTER_NAME    = EARTH
REF_FRAME      = TEME
TIME_SYSTEM    = UTC
MEAN_ELEMENT_THEORY = SGP/SGP4

EPOCH          = 2026-02-14T14:38:10.800672
MEAN_MOTION    = 14.16855444
ECCENTRICITY   = .0011238
INCLINATION    = 70.9975
RA_OF_ASC_NODE = 236.9907
ARG_OF_PERICENTER = 138.2098
MEAN_ANOMALY   = 279.9639

EPHEMERIS_TYPE = 0
CLASSIFICATION_TYPE = U
NORAD_CAT_ID   = 22220
ELEMENT_SET_NO = 999
REV_AT_EPOCH   = 71856
BSTAR          = -.6873E-4
MEAN_MOTION_DOT = -.186E-5
MEAN_MOTION_DDOT = 0

CCSDS_OMM_VERS = 2.0
CREATION_DATE  = 
ORIGINATOR     = 

OBJECT_NAME    = COSMOS 2221
OBJECT_ID      = 1992-080A
CENTER_NAME    = EARTH
REF_FRAME      = TEME
TIME_SYSTEM    = UTC
MEAN_ELEMENT_THEORY = SGP/SGP4

EPOCH          = 2026-02-14T15:08:10.327776
MEAN_MOTION    = 14.96109044
ECCENTRICITY   = .0012747
INCLINATION    = 82.5052
RA_OF_ASC_NODE = 301.1665
ARG_OF_PERICENTER = 271.4462
MEAN_ANOMALY   = 88.5300

EPHEMERIS_TYPE = 0
CLASSIFICATION_TYPE = U
NORAD_CAT_ID   = 22236
ELEMENT_SET_NO = 999
REV_AT_EPOCH   = 77734
BSTAR          = .16305E-3
MEAN_MOTION_DOT = .1861E-4
MEAN_MOTION_DDOT = 0

CCSDS_OMM_VERS = 2.0
CREATION_DATE  = 
ORIGINATOR     = 

OBJECT_NAME    = SL-16 R/B
OBJECT_ID      = 1992-093B
CENTER_NAME    = EARTH
REF_FRAME      = TEME
TIME_SYSTEM    = UTC
MEAN_ELEMENT_THEORY = SGP/SGP4

EPOCH          = 2026-02-14T10:02:25.406304
MEAN_MOTION    = 14.15442461
ECCENTRICITY   = .0005339
INCLINATION    = 71.0202
RA_OF_ASC_NODE = 53.1188
ARG_OF_PERICENTER = 318.7411
MEAN_ANOMALY   = 41.3307

EPHEMERIS_TYPE = 0
CLASSIFICATION_TYPE = U
NORAD_CAT_ID   = 22285
ELEMENT_SET_NO = 999
REV_AT_EPOCH   = 70986
BSTAR          = .15121E-3
MEAN_MOTION_DOT = .248E-5
MEAN_MOTION_DDOT = 0

CCSDS_OMM_VERS = 2.0
CREATION_DATE  = 
ORIGINATOR     = 

OBJECT_NAME    = COSMOS 2228
OBJECT_ID      = 1992-094A
CENTER_NAME    = EARTH
REF_FRAME      = TEME
TIME_SYSTEM    = UTC
MEAN_ELEMENT_THEORY = SGP/SGP4

EPOCH          = 2026-02-14T15:53:28.341312
MEAN_MOTION    = 14.97080121
ECCENTRICITY   = .0018633
INCLINATION    = 82.5150
RA_OF_ASC_NODE = 259.3622
ARG_OF_PERICENTER = 23.7167
MEAN_ANOMALY   = 336.4909

EPHEMERIS_TYPE = 0
CLASSIFICATION_TYPE = U
NORAD_CAT_ID   = 22286
ELEMENT_SET_NO = 999
REV_AT_EPOCH   = 77261
BSTAR          = .16867E-3
MEAN_MOTION_DOT = .1977E-4
MEAN_MOTION_DDOT = 0

